[{"OBJECT_NAME":"STARLINK-31792","OBJECT_ID":"2024-118V","EPOCH":"2025-10-24T17:34:57.836640","MEAN_MOTION":15.30191271,"ECCENTRICITY":0.0001446,"INCLINATION":53.161,"RA_OF_ASC_NODE":295.8445,"ARG_OF_PERICENTER":86.5042,"MEAN_ANOMALY":273.6124,"EPHEMERIS_TYPE":0,"CLASSIFICATION_TYPE":"U","NORAD_CAT_ID":60132,"ELEMENT_SET_NO":999,"REV_AT_EPOCH":7491,"BSTAR":3.9723e-5,"MEAN_MOTION_DOT":8.17e-6,"MEAN_MOTION_DDOT":0},{"OBJECT_NAME":"STARLINK-32043","OBJECT_ID":"2024-120A","EPOCH":"2025-10-24T19:29:10.523904","MEAN_MOTION":15.30190096,"ECCENTRICITY":0.0001136,"INCLINATION":53.1616,"RA_OF_ASC_NODE":230.993,"ARG_OF_PERICENTER":89.7237,"MEAN_ANOMALY":270.3894,"EPHEMERIS_TYPE":0,"CLASSIFICATION_TYPE":"U","NORAD_CAT_ID":60135,"ELEMENT_SET_NO":999,"REV_AT_EPOCH":7557,"BSTAR":6.077e-5,"MEAN_MOTION_DOT":1.441e-5,"MEAN_MOTION_DDOT":0},{"OBJECT_NAME":"STARLINK-32112","OBJECT_ID":"2024-120B","EPOCH":"2025-10-24T12:24:30.303360","MEAN_MOTION":15.30191254,"ECCENTRICITY":0.0001097,"INCLINATION":53.1605,"RA_OF_ASC_NODE":232.7112,"ARG_OF_PERICENTER":69.2036,"MEAN_ANOMALY":290.9083,"EPHEMERIS_TYPE":0,"CLASSIFICATION_TYPE":"U","NORAD_CAT_ID":60136,"ELEMENT_SET_NO":999,"REV_AT_EPOCH":7560,"BSTAR":3.7372e-5,"MEAN_MOTION_DOT":7.48e-6,"MEAN_MOTION_DDOT":0},{"OBJECT_NAME":"STARLINK-32050","OBJECT_ID":"2024-120C","EPOCH":"2025-10-24T12:33:37.391616","MEAN_MOTION":15.30196476,"ECCENTRICITY":0.0001149,"INCLINATION":53.1592,"RA_OF_ASC_NODE":232.751,"ARG_OF_PERICENTER":89.7775,"MEAN_ANOMALY":270.3357,"EPHEMERIS_TYPE":0,"CLASSIFICATION_TYPE":"U","NORAD_CAT_ID":60137,"ELEMENT_SET_NO":999,"REV_AT_EPOCH":7552,"BSTAR":7.5664e-5,"MEAN_MOTION_DOT":1.882e-5,"MEAN_MOTION_DDOT":0},{"OBJECT_NAME":"STARLINK-32025","OBJECT_ID":"2024-120D","EPOCH":"2025-10-24T04:58:24.400704","MEAN_MOTION":15.30192616,"ECCENTRICITY":0.0001594,"INCLINATION":53.1607,"RA_OF_ASC_NODE":233.6152,"ARG_OF_PERICENTER":106.2583,"MEAN_ANOMALY":253.8593,"EPHEMERIS_TYPE":0,"CLASSIFICATION_TYPE":"U","NORAD_CAT_ID":60138,"ELEMENT_SET_NO":999,"REV_AT_EPOCH":7548,"BSTAR":-7.0721e-5,"MEAN_MOTION_DOT":-2.453e-5,"MEAN_MOTION_DDOT":0},{"OBJECT_NAME":"STARLINK-31867","OBJECT_ID":"2024-120E","EPOCH":"2025-10-24T05:37:32.221344","MEAN_MOTION":15.31832501,"ECCENTRICITY":0.0002537,"INCLINATION":53.1595,"RA_OF_ASC_NODE":233.8013,"ARG_OF_PERICENTER":114.5887,"MEAN_ANOMALY":245.5379,"EPHEMERIS_TYPE":0,"CLASSIFICATION_TYPE":"U","NORAD_CAT_ID":60139,"ELEMENT_SET_NO":999,"REV_AT_EPOCH":7548,"BSTAR":0.00098799,"MEAN_MOTION_DOT":0.00030547,"MEAN_MOTION_DDOT":0},{"OBJECT_NAME":"STARLINK-31694","OBJECT_ID":"2024-120F","EPOCH":"2025-10-24T06:05:15.036000","MEAN_MOTION":15.3019343,"ECCENTRICITY":0.000109,"INCLINATION":53.1591,"RA_OF_ASC_NODE":233.9096,"ARG_OF_PERICENTER":79.9108,"MEAN_ANOMALY":280.2016,"EPHEMERIS_TYPE":0,"CLASSIFICATION_TYPE":"U","NORAD_CAT_ID":60140,"ELEMENT_SET_NO":999,"REV_AT_EPOCH":7556,"BSTAR":3.4512e-5,"MEAN_MOTION_DOT":6.63e-6,"MEAN_MOTION_DDOT":0},{"OBJECT_NAME":"STARLINK-32036","OBJECT_ID":"2024-120G","EPOCH":"2025-10-24T02:55:38.143200","MEAN_MOTION":15.30183894,"ECCENTRICITY":9.51e-5,"INCLINATION":53.159,"RA_OF_ASC_NODE":234.5097,"ARG_OF_PERICENTER":66.936,"MEAN_ANOMALY":293.1741,"EPHEMERIS_TYPE":0,"CLASSIFICATION_TYPE":"U","NORAD_CAT_ID":60141,"ELEMENT_SET_NO":999,"REV_AT_EPOCH":7554,"BSTAR":-1.7063865e-5,"MEAN_MOTION_DOT":-8.64e-6,"MEAN_MOTION_DDOT":0},{"OBJECT_NAME":"STARLINK-32031","OBJECT_ID":"2024-120H","EPOCH":"2025-10-24T05:54:37.077408","MEAN_MOTION":15.30197454,"ECCENTRICITY":0.0001017,"INCLINATION":53.1602,"RA_OF_ASC_NODE":233.8629,"ARG_OF_PERICENTER":93.5734,"MEAN_ANOMALY":266.5383,"EPHEMERIS_TYPE":0,"CLASSIFICATION_TYPE":"U","NORAD_CAT_ID":60142,"ELEMENT_SET_NO":999,"REV_AT_EPOCH":7556,"BSTAR":-3.6513e-5,"MEAN_MOTION_DOT":-1.44e-5,"MEAN_MOTION_DDOT":0},{"OBJECT_NAME":"STARLINK-32027","OBJECT_ID":"2024-120J","EPOCH":"2025-10-24T12:42:34.226784","MEAN_MOTION":15.30186812,"ECCENTRICITY":9.72e-5,"INCLINATION":53.1601,"RA_OF_ASC_NODE":232.0342,"ARG_OF_PERICENTER":99.0972,"MEAN_ANOMALY":261.0139,"EPHEMERIS_TYPE":0,"CLASSIFICATION_TYPE":"U","NORAD_CAT_ID":60143,"ELEMENT_SET_NO":999,"REV_AT_EPOCH":7561,"BSTAR":2.8397e-6,"MEAN_MOTION_DOT":-2.75e-6,"MEAN_MOTION_DDOT":0},{"OBJECT_NAME":"STARLINK-32033","OBJECT_ID":"2024-120K","EPOCH":"2025-10-24T05:35:48.466176","MEAN_MOTION":15.31482197,"ECCENTRICITY":0.0001631,"INCLINATION":53.1592,"RA_OF_ASC_NODE":233.782,"ARG_OF_PERICENTER":107.9877,"MEAN_ANOMALY":252.1302,"EPHEMERIS_TYPE":0,"CLASSIFICATION_TYPE":"U","NORAD_CAT_ID":60144,"ELEMENT_SET_NO":999,"REV_AT_EPOCH":7548,"BSTAR":0.00089102,"MEAN_MOTION_DOT":0.00027198,"MEAN_MOTION_DDOT":0},{"OBJECT_NAME":"STARLINK-32029","OBJECT_ID":"2024-120L","EPOCH":"2025-10-24T05:40:56.223840","MEAN_MOTION":15.30192195,"ECCENTRICITY":0.0001307,"INCLINATION":53.1597,"RA_OF_ASC_NODE":233.8021,"ARG_OF_PERICENTER":80.2711,"MEAN_ANOMALY":279.8438,"EPHEMERIS_TYPE":0,"CLASSIFICATION_TYPE":"U","NORAD_CAT_ID":60145,"ELEMENT_SET_NO":999,"REV_AT_EPOCH":7548,"BSTAR":3.6069e-5,"MEAN_MOTION_DOT":7.09e-6,"MEAN_MOTION_DDOT":0},{"OBJECT_NAME":"STARLINK-32127","OBJECT_ID":"2024-120M","EPOCH":"2025-10-24T12:39:32.982048","MEAN_MOTION":15.30183055,"ECCENTRICITY":0.000114,"INCLINATION":53.1606,"RA_OF_ASC_NODE":232.0613,"ARG_OF_PERICENTER":107.9054,"MEAN_ANOMALY":252.2071,"EPHEMERIS_TYPE":0,"CLASSIFICATION_TYPE":"U","NORAD_CAT_ID":60146,"ELEMENT_SET_NO":999,"REV_AT_EPOCH":7553,"BSTAR":-1.4306e-5,"MEAN_MOTION_DOT":-7.82e-6,"MEAN_MOTION_DDOT":0},{"OBJECT_NAME":"STARLINK-32019","OBJECT_ID":"2024-120N","EPOCH":"2025-10-24T12:53:13.057152","MEAN_MOTION":15.30185561,"ECCENTRICITY":0.0001109,"INCLINATION":53.161,"RA_OF_ASC_NODE":232.1176,"ARG_OF_PERICENTER":105.9105,"MEAN_ANOMALY":254.2018,"EPHEMERIS_TYPE":0,"CLASSIFICATION_TYPE":"U","NORAD_CAT_ID":60147,"ELEMENT_SET_NO":999,"REV_AT_EPOCH":7553,"BSTAR":1.5228e-5,"MEAN_MOTION_DOT":9.2e-7,"MEAN_MOTION_DDOT":0},{"OBJECT_NAME":"STARLINK-32021","OBJECT_ID":"2024-120P","EPOCH":"2025-10-24T19:18:38.801664","MEAN_MOTION":15.30224923,"ECCENTRICITY":0.0001197,"INCLINATION":53.1611,"RA_OF_ASC_NODE":220.9997,"ARG_OF_PERICENTER":79.6857,"MEAN_ANOMALY":280.4279,"EPHEMERIS_TYPE":0,"CLASSIFICATION_TYPE":"U","NORAD_CAT_ID":60148,"ELEMENT_SET_NO":999,"REV_AT_EPOCH":7579,"BSTAR":-6.7166e-5,"MEAN_MOTION_DOT":-2.349e-5,"MEAN_MOTION_DDOT":0},{"OBJECT_NAME":"STARLINK-32022","OBJECT_ID":"2024-120Q","EPOCH":"2025-10-24T19:33:45.508320","MEAN_MOTION":15.30173203,"ECCENTRICITY":0.0001305,"INCLINATION":53.1616,"RA_OF_ASC_NODE":231.0117,"ARG_OF_PERICENTER":79.1509,"MEAN_ANOMALY":280.9638,"EPHEMERIS_TYPE":0,"CLASSIFICATION_TYPE":"U","NORAD_CAT_ID":60149,"ELEMENT_SET_NO":999,"REV_AT_EPOCH":7565,"BSTAR":-3.5617e-5,"MEAN_MOTION_DOT":-1.413e-5,"MEAN_MOTION_DDOT":0},{"OBJECT_NAME":"STARLINK-32014","OBJECT_ID":"2024-120R","EPOCH":"2025-10-24T19:20:02.781600","MEAN_MOTION":15.30208196,"ECCENTRICITY":0.0001106,"INCLINATION":53.1604,"RA_OF_ASC_NODE":230.9512,"ARG_OF_PERICENTER":105.6251,"MEAN_ANOMALY":254.4872,"EPHEMERIS_TYPE":0,"CLASSIFICATION_TYPE":"U","NORAD_CAT_ID":60150,"ELEMENT_SET_NO":999,"REV_AT_EPOCH":7557,"BSTAR":5.9698e-5,"MEAN_MOTION_DOT":1.41e-5,"MEAN_MOTION_DDOT":0},{"OBJECT_NAME":"STARLINK-32004","OBJECT_ID":"2024-120S","EPOCH":"2025-10-24T13:08:24.715392","MEAN_MOTION":15.30186727,"ECCENTRICITY":0.0001118,"INCLINATION":53.1606,"RA_OF_ASC_NODE":232.1847,"ARG_OF_PERICENTER":91.2504,"MEAN_ANOMALY":268.8625,"EPHEMERIS_TYPE":0,"CLASSIFICATION_TYPE":"U","NORAD_CAT_ID":60151,"ELEMENT_SET_NO":999,"REV_AT_EPOCH":7561,"BSTAR":-4.2709e-6,"MEAN_MOTION_DOT":-4.85e-6,"MEAN_MOTION_DDOT":0},{"OBJECT_NAME":"STARLINK-32147","OBJECT_ID":"2024-120T","EPOCH":"2025-10-24T12:26:01.431168","MEAN_MOTION":15.3019267,"ECCENTRICITY":9.88e-5,"INCLINATION":53.16,"RA_OF_ASC_NODE":232.7143,"ARG_OF_PERICENTER":72.6488,"MEAN_ANOMALY":287.462,"EPHEMERIS_TYPE":0,"CLASSIFICATION_TYPE":"U","NORAD_CAT_ID":60152,"ELEMENT_SET_NO":999,"REV_AT_EPOCH":7552,"BSTAR":3.4257e-5,"MEAN_MOTION_DOT":6.55e-6,"MEAN_MOTION_DDOT":0},{"OBJECT_NAME":"STARLINK-32131","OBJECT_ID":"2024-120U","EPOCH":"2025-10-24T05:45:29.892384","MEAN_MOTION":15.30189538,"ECCENTRICITY":0.0001264,"INCLINATION":53.1604,"RA_OF_ASC_NODE":233.8198,"ARG_OF_PERICENTER":83.841,"MEAN_ANOMALY":276.2735,"EPHEMERIS_TYPE":0,"CLASSIFICATION_TYPE":"U","NORAD_CAT_ID":60153,"ELEMENT_SET_NO":999,"REV_AT_EPOCH":7556,"BSTAR":3.2038e-5,"MEAN_MOTION_DOT":5.9e-6,"MEAN_MOTION_DDOT":0},{"OBJECT_NAME":"STARLINK-32145","OBJECT_ID":"2024-120V","EPOCH":"2025-10-24T12:57:47.090304","MEAN_MOTION":15.30172491,"ECCENTRICITY":0.000113,"INCLINATION":53.1607,"RA_OF_ASC_NODE":232.1368,"ARG_OF_PERICENTER":104.5263,"MEAN_ANOMALY":255.5863,"EPHEMERIS_TYPE":0,"CLASSIFICATION_TYPE":"U","NORAD_CAT_ID":60154,"ELEMENT_SET_NO":999,"REV_AT_EPOCH":7553,"BSTAR":4.5711e-5,"MEAN_MOTION_DOT":9.94e-6,"MEAN_MOTION_DDOT":0},{"OBJECT_NAME":"STARLINK-32137","OBJECT_ID":"2024-120W","EPOCH":"2025-10-24T19:38:17.721024","MEAN_MOTION":15.3019996,"ECCENTRICITY":0.0001245,"INCLINATION":53.1605,"RA_OF_ASC_NODE":231.0314,"ARG_OF_PERICENTER":70.5066,"MEAN_ANOMALY":289.6069,"EPHEMERIS_TYPE":0,"CLASSIFICATION_TYPE":"U","NORAD_CAT_ID":60155,"ELEMENT_SET_NO":999,"REV_AT_EPOCH":7557,"BSTAR":0.00015426,"MEAN_MOTION_DOT":4.212e-5,"MEAN_MOTION_DDOT":0},{"OBJECT_NAME":"STARLINK-32048","OBJECT_ID":"2024-120X","EPOCH":"2025-10-24T05:36:22.396320","MEAN_MOTION":15.3020051,"ECCENTRICITY":0.0001145,"INCLINATION":53.1601,"RA_OF_ASC_NODE":233.7801,"ARG_OF_PERICENTER":81.4491,"MEAN_ANOMALY":278.6639,"EPHEMERIS_TYPE":0,"CLASSIFICATION_TYPE":"U","NORAD_CAT_ID":60156,"ELEMENT_SET_NO":999,"REV_AT_EPOCH":7548,"BSTAR":0.00024817,"MEAN_MOTION_DOT":6.998e-5,"MEAN_MOTION_DDOT":0}]
